id,category,satellite_name,tle_line1,tle_line2,inclination,eccentricity,period,perigee,apogee,epoch,raan,arg_perigee,mean_anomaly,mean_motion,semi_major_axis,velocity,orbit_type,satellite_age,bstar,rev_num,norad_number,ephemeris_type,intl_designator
8313,active,GEESAT-2 01,1 58905U 24023A   25017.58494881  .00005729  00000+0  58826-3 0  9994,2 58905  49.9926 240.0434 0004262 328.1591  31.9092 14.91577710 52135,49.9926,0.0004262,96.54207020832995,590.1814182377148,596.1236286486974,2025-01-17 14:02:19.577184,240.0434,328.1591,14.9157771,14.9157771,6971.1525234432065,7.56165041397448,LEO,2,0.0005882600000000001,5213,58905,0,24023A
8074,active,STARLINK-31061,1 58611U 23200Y   25017.04397997  .00002525  00000+0  20198-3 0  9997,2 58611  43.0036 273.8734 0001118 274.9288  85.1427 15.02526996 60923,43.0036,0.0001118,95.83854425468174,558.4686639637112,560.0198317775357,2025-01-17 01:03:19.869408,273.8734,274.9288,15.02526996,15.02526996,6937.244247870623,7.580108029518537,LEO,2,0.00020198,6092,58611,0,23200Y
8321,active,GEESAT-2 09,1 58913U 24023J   25017.59241529  .00005666  00000+0  58221-3 0  9992,2 58913  50.0015 239.6628 0006642 334.9423  25.1195 14.91561260 52141,50.0015,0.0006642,96.5431349430462,588.5735050229414,597.8340521223972,2025-01-17 14:13:04.681056,239.66280000000003,334.9423,14.9156126,14.9156126,6971.20377857267,7.56162261575658,LEO,2,0.00058221,5214,58913,0,24023J
8084,active,STARLINK-31092,1 58628U 23203L   25016.70489023 -.00001149  00000+0 -34087-4 0  9998,2 58628  42.9993 261.5847 0000939 280.2791  79.7954 15.25911643 59798,42.9993,9.39e-05,94.3698153563404,487.54157331462375,488.831043103306,2025-01-16 16:55:02.515872,261.5847,280.2791,15.25911643,15.25911643,6866.186308208965,7.619230217697943,LEO,3,-3.4087e-05,5979,58628,0,23203L
8344,active,STARLINK-31371,1 58940U 24027K   25017.49152817 -.00000911  00000+0 -18623-4 0  9999,2 58940  53.1601  83.0231 0001402 119.8282 240.2858 15.30189716 53603,53.1601,0.0001402,94.10597816355994,474.42193149643026,476.34362002675425,2025-01-17 11:47:48.033888,83.02310000000001,119.82820000000001,15.30189716,15.30189716,6853.382775761593,7.626344043432441,LEO,2,-1.8623e-05,5360,58940,0,24027K
8095,active,STARLINK-31070,1 58639U 23203X   25017.05252816  .00001213  00000+0  56182-4 0  9997,2 58639  43.0003 259.9105 0001088 287.9739  72.0994 15.25918926 59841,43.0003,0.0001088,94.36936494226299,487.4174219264978,488.91149931312884,2025-01-17 01:15:38.433024,259.9105,287.9739,15.25918926,15.25918926,6866.164460619813,7.619242339580545,LEO,2,5.6182e-05,5984,58639,0,23203X
8364,active,STARLINK-31449,1 58966U 24031B   25017.34653986  .00001352  00000+0  57778-4 0  9991,2 58966  53.1593  70.2507 0001381  89.6846 270.4313 15.30199223 52795,53.1593,0.0001381,94.10539349097552,474.4079411610737,476.30083764342726,2025-01-17 08:19:01.043904,70.2507,89.6846,15.30199223,15.30199223,6853.3543894022505,7.626359837444105,LEO,2,5.7778e-05,5279,58966,0,24031B
8109,active,TIANMU-1 21,1 58662U 23208C   25017.54143899  .00013421  00000+0  56930-3 0  9996,2 58662  97.4167 132.3631 0008226 354.3444   5.7699 15.23201494 58748,97.41670000000002,0.0008226,94.53772240063206,490.67349200597437,501.98313694895205,2025-01-17 12:59:40.328736,132.3631,354.34440000000006,15.23201494,15.23201494,6874.328314477463,7.6147167440053645,LEO,2,0.0005693,5874,58662,0,23208C
8385,active,CE-SAT-IE,1 58987U 24032A   25017.10281772  .00000941  00000+0  17469-3 0  9994,2 58987  98.0727  76.3143 0001460 285.5268  74.5775 14.67478015 49127,98.0727,0.000146,98.12753481012115,668.2388506290199,670.2966528125226,2025-01-17 02:28:03.451008,76.3143,285.5268,14.67478015,14.67478015,7047.267751720771,7.520704098507086,LEO,2,0.00017469000000000002,4912,58987,0,24032A
8398,active,STARLINK-31456,1 59007U 24036K   25017.55502948  .00001029  00000+0  46839-4 0  9994,2 59007  53.1589 210.8529 0000939  73.8541 286.2563 15.30202070 51615,53.1589,9.39e-05,94.10521840425952,474.70235960045466,475.989417958368,2025-01-17 13:19:14.547072,210.8529,73.8541,15.3020207,15.3020207,6853.345888779411,7.626364567162227,LEO,2,4.6838999999999997e-05,5161,59007,0,24036K
8426,active,STARLINK-31208,1 59037U 24038Q   25016.56864109  .00002445  00000+0  10330-3 0  9998,2 59037  42.9995 218.4778 0001218 280.7799  79.2915 15.25906992 51079,42.9995,0.0001218,94.37010299773237,487.3639572071979,489.036563590631,2025-01-16 13:38:50.590176,218.4778,280.7799,15.25906992,15.25906992,6866.200260398914,7.619222476516705,LEO,3,0.0001033,5107,59037,0,24038Q
8130,active,STARLINK-31137,1 58686U 23211V   25017.11933902  .00000152  00000+0  15642-4 0  9994,2 58686  42.9985 275.4438 0001586 276.9681  83.0989 15.25909578 58780,42.9985,0.0001586,94.36994306618081,487.1035247096106,489.2814809715119,2025-01-17 02:51:50.891328,275.4438,276.9681,15.25909578,15.25909578,6866.192502840561,7.619226780688649,LEO,2,1.5642e-05,5878,58686,0,23211V
6501,active,STARLINK-5530,1 56494U 23064AY  25017.57825174  .00000137  00000+0  19266-4 0  9995,2 56494  69.9991  73.5972 0003164 269.6663  90.4134 14.98329812 93907,69.9991,0.0003164,96.10701118453085,569.9944311043264,574.3925135336094,2025-01-17 13:52:40.950336,73.5972,269.6663,14.98329812,14.98329812,6950.193472318968,7.573043313749928,LEO,2,1.9266e-05,9390,56494,0,23064AY
8439,active,SITRO-AIS 31,1 59054U 24039D   25017.60663111  .00083969  00000+0  13457-2 0  9996,2 59054  97.4128 347.3935 0012269 148.8083 211.3900 15.52718759 49562,97.41280000000002,0.0012269,92.74055534225693,400.6021497143083,417.25591617534883,2025-01-17 14:33:32.927904,347.3935,148.8083,15.52718759,15.52718759,6786.929032944829,7.663589502150118,LEO,2,0.0013457,4956,59054,0,24039D
8471,active,STARLINK-31313,1 59088U 24041Q   25017.37347975 -.00001336  00000+0 -41271-4 0  9994,2 59088  43.0030 139.9024 0001151 260.7793  99.2927 15.25894084 50629,43.003,0.0001151,94.37090130300291,487.44867841519954,489.02928662897557,2025-01-17 08:57:48.6504,139.9024,260.7793,15.25894084,15.25894084,6866.238982522088,7.6192009922013515,LEO,2,-4.1271000000000005e-05,5062,59088,0,24041Q
8485,active,PE2_FLT1 (TYVAK-0261),1 59105U 24043H   25017.30150106  .00008571  00000+0  74727-3 0  9994,2 59105  97.7791 144.7819 0007249 279.6268  80.4134 14.97092580 47543,97.7791,0.0007249,96.1864362456462,570.9811750633125,581.0631163701728,2025-01-17 07:14:09.691584,144.7819,279.6268,14.9709258,14.9709258,6954.022145716743,7.570958282895226,LEO,2,0.00074727,4754,59105,0,24043H
8139,active,TIANMU-1 16,1 58701U 24004B   25017.54902696  .00009249  00000+0  43947-3 0  9990,2 58701  97.4530 201.0865 0008977  27.7794 332.3919 15.19403365 57278,97.453,0.0008977,94.77404309947674,501.5982519835561,513.9609807067418,2025-01-17 13:10:35.929344,201.0865,27.7794,15.19403365,15.19403365,6885.779616345149,7.608382333913435,LEO,2,0.00043947,5727,58701,0,24004B
8501,active,VSP ROSE,1 59124U 24043AC  25017.59519072  .00007061  00000+0  31066-3 0  9999,2 59124  97.4951 145.6889 0010976 259.6971 100.3027 15.22128726 48372,97.4951,0.0010976,94.6043508280784,492.0090601267466,507.1066751577955,2025-01-17 14:17:04.478208,145.6889,259.6971,15.22128726,15.22128726,6877.557867642271,7.612928680517196,LEO,2,0.00031066,4837,59124,0,24043AC
8155,active,STARLINK-31097,1 58718U 24002P   25017.06071061  .00000525  00000+0  56046-4 0  9999,2 58718  53.1629 338.8279 0001705 113.9407 246.1761 15.04919455 58604,53.1629,0.0001705,95.68618408219064,550.7083886210776,553.071481088864,2025-01-17 01:27:25.396704,338.8279,113.9407,15.04919455,15.04919455,6929.88993485497,7.5841291399065875,LEO,2,5.6046e-05,5860,58718,0,24002P
8512,active,VSP RF A1,1 59135U 24043AP  25017.58777014  .00007273  00000+0  31799-3 0  9990,2 59135  97.4982 145.9781 0010904 251.3604 108.6449 15.22333461 48389,97.4982,0.0010904,94.59162771434346,491.44260619652687,506.4398396154402,2025-01-17 14:06:23.340096,145.9781,251.3604,15.22333461,15.22333461,6876.9412229059835,7.61326999266562,LEO,2,0.00031799,4838,59135,0,24043AP
8171,active,STARLINK-31076,1 58736U 24005J   25017.57476921  .00000253  00000+0  33826-4 0  9991,2 58736  43.0048 322.9745 0001809 287.5104  72.5541 15.02540853 57860,43.0048,0.0001809,95.83766039538095,557.9466561096469,560.4565356470348,2025-01-17 13:47:40.059744,322.9745,287.51040000000006,15.02540853,15.02540853,6937.201595878341,7.580131331869475,LEO,2,3.3826000000000004e-05,5786,58736,0,24005J
8529,active,STARLINK-31297,1 59158U 24044G   25017.20378193  .00029900  00000+0  11462-2 0  9995,2 59158  43.0002 297.8906 0001284 271.9402  88.1302 15.25968680 49915,43.0002,0.0001284,94.36628804203241,487.1336165536468,488.8968092603209,2025-01-17 04:53:26.758752,297.8906,271.9402,15.2596868,15.2596868,6866.015212906984,7.619325149498514,LEO,2,0.0011462,4991,59158,0,24044G
8186,active,EINSTEIN PROBE,1 58753U 24007A   25017.51802035  .00006254  00000+0  50905-3 0  9998,2 58753  28.9991 317.8136 0010530 215.3612 144.6288 14.97675733 56068,28.9991,0.001053,96.14898394030398,566.8962098075663,581.5375785867454,2025-01-17 12:25:56.95824,317.8136,215.3612,14.97675733,14.97675733,6952.216894197156,7.571941177777842,LEO,2,0.00050905,5606,58753,0,24007A
8550,active,STARLINK-31486,1 59181U 24045D   25016.48362035  .00008908  00000+0  22062-3 0  9993,2 59181  42.9991 292.3028 0000917 282.7739  77.3015 15.40651328 49316,42.9991,9.17e-05,93.4669625650691,443.69722322046255,444.9484372275256,2025-01-16 11:36:24.79824,292.3028,282.7739,15.40651328,15.40651328,6822.322830223994,7.64368453324835,LEO,3,0.00022062,4931,59181,0,24045D
8563,active,STARLINK-31542,1 59194U 24045S   25017.12964959  .00000700  00000+0  24008-4 0  9997,2 59194  43.0005 288.5458 0001111 246.7539 113.3200 15.40700315 49416,43.0005,0.0001111,93.46399075669692,443.42027367508035,444.9361616750475,2025-01-17 03:06:41.724576,288.5458,246.75389999999996,15.40700315,15.40700315,6822.178217675064,7.643765545999015,LEO,2,2.4008e-05,4941,59194,0,24045S
